0 FENGYUN 1C DEB
1 35211U 99025DPT 13288.23488894  .00001235  00000-0  89689-3 0  3757
2 35211 098.4083 079.6349 0149031 102.0243 018.5437 13.92778651275612
0 FENGYUN 1C DEB
1 35211U 99025DPT 13293.91669524  .00001446  00000-0  10484-2 0  3760
2 35211 098.4063 084.7964 0146953 086.0325 067.5042 13.92792908276407
0 FENGYUN 1C DEB
1 35211U 99025DPT 13295.92785400  .00001549  00000-0  11179-2 0  3772
2 35211 098.4100 086.6287 0149008 080.6926 071.3139 13.92796223276683
